{
  "type": "FeatureCollection",
  "features": [
    {
      "type": "Feature",
      "properties": {
        "norad_id": 30334,
        "name": "FENGYUN 1C DEB",
        "group": "fengyun-1c-debris",
        "lat": 68.77727790691779,
        "lon": 72.0337970715414,
        "alt_km": 959.7911811591448,
        "timestamp": "2025-12-22T20:43:46.124244+00:00",
        "meta_object_name": "FENGYUN 1C DEB",
        "meta_object_id": "1999-025AAV",
        "meta_epoch": "2025-12-21T17:34:04.230624",
        "meta_mean_motion": 13.92403876,
        "meta_eccentricity": 0.01449583,
        "meta_inclination": 99.0213,
        "meta_ra_of_asc_node": 95.0797,
        "meta_arg_of_pericenter": 317.1322,
        "meta_mean_anomaly": 202.2073,
        "meta_ephemeris_type": 0,
        "meta_classification_type": "U",
        "meta_norad_cat_id": 30334,
        "meta_element_set_no": 999,
        "meta_rev_at_epoch": 95346,
        "meta_bstar": 0.0010755722,
        "meta_mean_motion_dot": 1.463e-05,
        "meta_mean_motion_ddot": 0,
        "tle_line1": "1 30334U 99025AAV 25355.73199341  .00001463  00000+0  10756-2 0  9999",
        "tle_line2": "2 30334  99.0213  95.0797 0144958 317.1322 202.2073 13.92403876953462"
      },
      "geometry": {
        "type": "Point",
        "coordinates": [
          72.0337970715414,
          68.77727790691779
        ]
      }
    },
    {
      "type": "Feature",
      "properties": {
        "norad_id": 30335,
        "name": "FENGYUN 1C DEB",
        "group": "fengyun-1c-debris",
        "lat": -64.99198696845471,
        "lon": 148.27584563510862,
        "alt_km": 973.1908691079525,
        "timestamp": "2025-12-22T20:43:46.124254+00:00",
        "meta_object_name": "FENGYUN 1C DEB",
        "meta_object_id": "1999-025AAW",
        "meta_epoch": "2025-12-21T13:16:55.792128",
        "meta_mean_motion": 14.01362253,
        "meta_eccentricity": 0.0133244,
        "meta_inclination": 98.9047,
        "meta_ra_of_asc_node": 346.6361,
        "meta_arg_of_pericenter": 107.075,
        "meta_mean_anomaly": 11.7644,
        "meta_ephemeris_type": 0,
        "meta_classification_type": "U",
        "meta_norad_cat_id": 30335,
        "meta_element_set_no": 999,
        "meta_rev_at_epoch": 96714,
        "meta_bstar": -1.1329e-05,
        "meta_mean_motion_dot": -6e-07,
        "meta_mean_motion_ddot": 0,
        "tle_line1": "1 30335U 99025AAW 25355.55342352 -.00000060  00000+0 -11329-4 0  9995",
        "tle_line2": "2 30335  98.9047 346.6361 0133244 107.0750  11.7644 14.01362253967146"
      },
      "geometry": {
        "type": "Point",
        "coordinates": [
          148.27584563510862,
          -64.99198696845471
        ]
      }
    },
    {
      "type": "Feature",
      "properties": {
        "norad_id": 30336,
        "name": "FENGYUN 1C DEB",
        "group": "fengyun-1c-debris",
        "lat": 23.3762947833566,
        "lon": 13.766431989106755,
        "alt_km": 804.938822959949,
        "timestamp": "2025-12-22T20:43:46.124265+00:00",
        "meta_object_name": "FENGYUN 1C DEB",
        "meta_object_id": "1999-025AAX",
        "meta_epoch": "2025-12-22T12:52:42.837888",
        "meta_mean_motion": 14.19319047,
        "meta_eccentricity": 0.00430545,
        "meta_inclination": 98.5996,
        "meta_ra_of_asc_node": 17.1993,
        "meta_arg_of_pericenter": 340.1727,
        "meta_mean_anomaly": 172.7457,
        "meta_ephemeris_type": 0,
        "meta_classification_type": "U",
        "meta_norad_cat_id": 30336,
        "meta_element_set_no": 999,
        "meta_rev_at_epoch": 97741,
        "meta_bstar": 0.00029843404,
        "meta_mean_motion_dot": 5.89e-06,
        "meta_mean_motion_ddot": 0,
        "tle_line1": "1 30336U 99025AAX 25356.53660692  .00000589  00000+0  29843-3 0  9998",
        "tle_line2": "2 30336  98.5996  17.1993 0043054 340.1727 172.7457 14.19319047977413"
      },
      "geometry": {
        "type": "Point",
        "coordinates": [
          13.766431989106755,
          23.3762947833566
        ]
      }
    },
    {
      "type": "Feature",
      "properties": {
        "norad_id": 30338,
        "name": "FENGYUN 1C DEB",
        "group": "fengyun-1c-debris",
        "lat": -5.9373713201638,
        "lon": 67.47479916526123,
        "alt_km": 926.9487771063687,
        "timestamp": "2025-12-22T20:43:46.124274+00:00",
        "meta_object_name": "FENGYUN 1C DEB",
        "meta_object_id": "1999-025AAZ",
        "meta_epoch": "2025-12-22T10:54:59.302656",
        "meta_mean_motion": 14.47629617,
        "meta_eccentricity": 0.02721577,
        "meta_inclination": 98.4583,
        "meta_ra_of_asc_node": 66.1787,
        "meta_arg_of_pericenter": 164.4096,
        "meta_mean_anomaly": 220.7093,
        "meta_ephemeris_type": 0,
        "meta_classification_type": "U",
        "meta_norad_cat_id": 30338,
        "meta_element_set_no": 999,
        "meta_rev_at_epoch": 98285,
        "meta_bstar": 0.001006689,
        "meta_mean_motion_dot": 5.873e-05,
        "meta_mean_motion_ddot": 0,
        "tle_line1": "1 30338U 99025AAZ 25356.45485304  .00005873  00000+0  10067-2 0  9994",
        "tle_line2": "2 30338  98.4583  66.1787 0272157 164.4096 220.7093 14.47629617982857"
      },
      "geometry": {
        "type": "Point",
        "coordinates": [
          67.47479916526123,
          -5.9373713201638
        ]
      }
    },
    {
      "type": "Feature",
      "properties": {
        "norad_id": 30339,
        "name": "FENGYUN 1C DEB",
        "group": "fengyun-1c-debris",
        "lat": -57.71612270730494,
        "lon": -90.7406049023831,
        "alt_km": 784.7989679774837,
        "timestamp": "2025-12-22T20:43:46.124284+00:00",
        "meta_object_name": "FENGYUN 1C DEB",
        "meta_object_id": "1999-025ABA",
        "meta_epoch": "2025-12-22T13:00:51.486048",
        "meta_mean_motion": 14.38290883,
        "meta_eccentricity": 0.0019157,
        "meta_inclination": 98.9736,
        "meta_ra_of_asc_node": 103.4077,
        "meta_arg_of_pericenter": 53.6015,
        "meta_mean_anomaly": 321.6582,
        "meta_ephemeris_type": 0,
        "meta_classification_type": "U",
        "meta_norad_cat_id": 30339,
        "meta_element_set_no": 999,
        "meta_rev_at_epoch": 97568,
        "meta_bstar": 0.0024665983,
        "meta_mean_motion_dot": 7.48e-05,
        "meta_mean_motion_ddot": 0,
        "tle_line1": "1 30339U 99025ABA 25356.54226257  .00007480  00000+0  24666-2 0  9991",
        "tle_line2": "2 30339  98.9736 103.4077 0019157  53.6015 321.6582 14.38290883975685"
      },
      "geometry": {
        "type": "Point",
        "coordinates": [
          -90.7406049023831,
          -57.71612270730494
        ]
      }
    },
    {
      "type": "Feature",
      "properties": {
        "norad_id": 30340,
        "name": "FENGYUN 1C DEB",
        "group": "fengyun-1c-debris",
        "lat": -39.878790077619456,
        "lon": 61.11367572618594,
        "alt_km": 973.1214392056136,
        "timestamp": "2025-12-22T20:43:46.124294+00:00",
        "meta_object_name": "FENGYUN 1C DEB",
        "meta_object_id": "1999-025ABB",
        "meta_epoch": "2025-12-22T02:25:38.890848",
        "meta_mean_motion": 14.04603575,
        "meta_eccentricity": 0.01462577,
        "meta_inclination": 98.9999,
        "meta_ra_of_asc_node": 52.7486,
        "meta_arg_of_pericenter": 108.965,
        "meta_mean_anomaly": 317.6283,
        "meta_ephemeris_type": 0,
        "meta_classification_type": "U",
        "meta_norad_cat_id": 30340,
        "meta_element_set_no": 999,
        "meta_rev_at_epoch": 96912,
        "meta_bstar": 0.00029990131,
        "meta_mean_motion_dot": 4.84e-06,
        "meta_mean_motion_ddot": 0,
        "tle_line1": "1 30340U 99025ABB 25356.10114457  .00000484  00000+0  29990-3 0  9996",
        "tle_line2": "2 30340  98.9999  52.7486 0146257 108.9650 317.6283 14.04603575969123"
      },
      "geometry": {
        "type": "Point",
        "coordinates": [
          61.11367572618594,
          -39.878790077619456
        ]
      }
    },
    {
      "type": "Feature",
      "properties": {
        "norad_id": 30341,
        "name": "FENGYUN 1C DEB",
        "group": "fengyun-1c-debris",
        "lat": 15.481968001993183,
        "lon": 68.14523986991819,
        "alt_km": 804.6718983069013,
        "timestamp": "2025-12-22T20:43:46.124304+00:00",
        "meta_object_name": "FENGYUN 1C DEB",
        "meta_object_id": "1999-025ABC",
        "meta_epoch": "2025-12-22T03:58:37.045056",
        "meta_mean_motion": 14.3423898,
        "meta_eccentricity": 0.00520324,
        "meta_inclination": 99.2194,
        "meta_ra_of_asc_node": 244.8229,
        "meta_arg_of_pericenter": 30.8284,
        "meta_mean_anomaly": 130.8937,
        "meta_ephemeris_type": 0,
        "meta_classification_type": "U",
        "meta_norad_cat_id": 30341,
        "meta_element_set_no": 999,
        "meta_rev_at_epoch": 97216,
        "meta_bstar": 0.0031952508,
        "meta_mean_motion_dot": 9.063e-05,
        "meta_mean_motion_ddot": 0,
        "tle_line1": "1 30341U 99025ABC 25356.16570654  .00009063  00000+0  31953-2 0  9991",
        "tle_line2": "2 30341  99.2194 244.8229 0052032  30.8284 130.8937 14.34238980972163"
      },
      "geometry": {
        "type": "Point",
        "coordinates": [
          68.14523986991819,
          15.481968001993183
        ]
      }
    }
  ]
}